{
  "type": "FeatureCollection",
  "features": [
    {
      "type": "Feature",
      "properties": {
        "norad_id": 33835,
        "name": "COSMOS 2251 DEB",
        "group": "cosmos-2251-debris",
        "lat": -50.85054038001363,
        "lon": 62.05362622638652,
        "alt_km": 730.0296760861193,
        "timestamp": "2025-12-22T09:53:37.792884+00:00",
        "meta_object_name": "COSMOS 2251 DEB",
        "meta_object_id": "1993-036CC",
        "meta_epoch": "2025-12-21T12:53:12.007392",
        "meta_mean_motion": 14.6232731,
        "meta_eccentricity": 0.00539291,
        "meta_inclination": 74.0577,
        "meta_ra_of_asc_node": 84.2826,
        "meta_arg_of_pericenter": 135.3043,
        "meta_mean_anomaly": 244.9221,
        "meta_ephemeris_type": 0,
        "meta_classification_type": "U",
        "meta_norad_cat_id": 33835,
        "meta_element_set_no": 999,
        "meta_rev_at_epoch": 88918,
        "meta_bstar": 0.00068203492,
        "meta_mean_motion_dot": 3.488e-05,
        "meta_mean_motion_ddot": 0,
        "tle_line1": "1 33835U 93036CC  25355.53694453  .00003488  00000+0  68203-3 0  9996",
        "tle_line2": "2 33835  74.0577  84.2826 0053929 135.3043 244.9221 14.62327310889188"
      },
      "geometry": {
        "type": "Point",
        "coordinates": [
          62.05362622638652,
          -50.85054038001363
        ]
      }
    },
    {
      "type": "Feature",
      "properties": {
        "norad_id": 33836,
        "name": "COSMOS 2251 DEB",
        "group": "cosmos-2251-debris",
        "lat": -34.2760064614876,
        "lon": 71.14305594910574,
        "alt_km": 645.3664483489865,
        "timestamp": "2025-12-22T09:53:37.792895+00:00",
        "meta_object_name": "COSMOS 2251 DEB",
        "meta_object_id": "1993-036CD",
        "meta_epoch": "2025-12-22T03:11:10.203072",
        "meta_mean_motion": 14.79767992,
        "meta_eccentricity": 0.002276,
        "meta_inclination": 73.9964,
        "meta_ra_of_asc_node": 240.4143,
        "meta_arg_of_pericenter": 89.9867,
        "meta_mean_anomaly": 77.3211,
        "meta_ephemeris_type": 0,
        "meta_classification_type": "U",
        "meta_norad_cat_id": 33836,
        "meta_element_set_no": 999,
        "meta_rev_at_epoch": 64227,
        "meta_bstar": 0.0011262,
        "meta_mean_motion_dot": 8.487e-05,
        "meta_mean_motion_ddot": 0,
        "tle_line1": "1 33836U 93036CD  25356.13275698  .00008487  00000+0  11262-2 0  9996",
        "tle_line2": "2 33836  73.9964 240.4143 0022760  89.9867  77.3211 14.79767992642278"
      },
      "geometry": {
        "type": "Point",
        "coordinates": [
          71.14305594910574,
          -34.2760064614876
        ]
      }
    },
    {
      "type": "Feature",
      "properties": {
        "norad_id": 33837,
        "name": "COSMOS 2251 DEB",
        "group": "cosmos-2251-debris",
        "lat": -73.52488265082525,
        "lon": -66.81615226691997,
        "alt_km": 705.0409435962947,
        "timestamp": "2025-12-22T09:53:37.792919+00:00",
        "meta_object_name": "COSMOS 2251 DEB",
        "meta_object_id": "1993-036CE",
        "meta_epoch": "2025-12-21T02:52:45.909120",
        "meta_mean_motion": 14.50717283,
        "meta_eccentricity": 0.00359018,
        "meta_inclination": 74.0124,
        "meta_ra_of_asc_node": 39.8205,
        "meta_arg_of_pericenter": 260.198,
        "meta_mean_anomaly": 99.5125,
        "meta_ephemeris_type": 0,
        "meta_classification_type": "U",
        "meta_norad_cat_id": 33837,
        "meta_element_set_no": 999,
        "meta_rev_at_epoch": 88917,
        "meta_bstar": 0.00017307815,
        "meta_mean_motion_dot": 6.57e-06,
        "meta_mean_motion_ddot": 0,
        "tle_line1": "1 33837U 93036CE  25355.11997580  .00000657  00000+0  17308-3 0  9994",
        "tle_line2": "2 33837  74.0124  39.8205 0035901 260.1980  99.5125 14.50717283889177"
      },
      "geometry": {
        "type": "Point",
        "coordinates": [
          -66.81615226691997,
          -73.52488265082525
        ]
      }
    },
    {
      "type": "Feature",
      "properties": {
        "norad_id": 33838,
        "name": "COSMOS 2251 DEB",
        "group": "cosmos-2251-debris",
        "lat": 53.94646614381112,
        "lon": 154.85384443778804,
        "alt_km": 744.353266356653,
        "timestamp": "2025-12-22T09:53:37.792940+00:00",
        "meta_object_name": "COSMOS 2251 DEB",
        "meta_object_id": "1993-036CF",
        "meta_epoch": "2025-12-22T03:49:01.824096",
        "meta_mean_motion": 14.48390693,
        "meta_eccentricity": 0.00275,
        "meta_inclination": 74.0362,
        "meta_ra_of_asc_node": 132.1732,
        "meta_arg_of_pericenter": 252.763,
        "meta_mean_anomaly": 284.7828,
        "meta_ephemeris_type": 0,
        "meta_classification_type": "U",
        "meta_norad_cat_id": 33838,
        "meta_element_set_no": 999,
        "meta_rev_at_epoch": 88705,
        "meta_bstar": 0.00037864,
        "meta_mean_motion_dot": 1.397e-05,
        "meta_mean_motion_ddot": 0,
        "tle_line1": "1 33838U 93036CF  25356.15904889  .00001397  00000+0  37864-3 0  9991",
        "tle_line2": "2 33838  74.0362 132.1732 0027500 252.7630 284.7828 14.48390693887051"
      },
      "geometry": {
        "type": "Point",
        "coordinates": [
          154.85384443778804,
          53.94646614381112
        ]
      }
    },
    {
      "type": "Feature",
      "properties": {
        "norad_id": 33839,
        "name": "COSMOS 2251 DEB",
        "group": "cosmos-2251-debris",
        "lat": -1.3797365443555403,
        "lon": 8.289121920636394,
        "alt_km": 708.0761520612568,
        "timestamp": "2025-12-22T09:53:37.792957+00:00",
        "meta_object_name": "COSMOS 2251 DEB",
        "meta_object_id": "1993-036CG",
        "meta_epoch": "2025-12-21T22:07:08.652288",
        "meta_mean_motion": 14.6444181,
        "meta_eccentricity": 0.0085329,
        "meta_inclination": 74.0375,
        "meta_ra_of_asc_node": 188.8366,
        "meta_arg_of_pericenter": 298.8096,
        "meta_mean_anomaly": 177.936,
        "meta_ephemeris_type": 0,
        "meta_classification_type": "U",
        "meta_norad_cat_id": 33839,
        "meta_element_set_no": 999,
        "meta_rev_at_epoch": 89714,
        "meta_bstar": 0.00018843,
        "meta_mean_motion_dot": 1.017e-05,
        "meta_mean_motion_ddot": 0,
        "tle_line1": "1 33839U 93036CG  25355.92162792  .00001017  00000+0  18843-3 0  9990",
        "tle_line2": "2 33839  74.0375 188.8366 0085329 298.8096 177.9360 14.64441810897148"
      },
      "geometry": {
        "type": "Point",
        "coordinates": [
          8.289121920636394,
          -1.3797365443555403
        ]
      }
    },
    {
      "type": "Feature",
      "properties": {
        "norad_id": 33841,
        "name": "COSMOS 2251 DEB",
        "group": "cosmos-2251-debris",
        "lat": 63.75292345378563,
        "lon": -64.2822139290143,
        "alt_km": 758.9778759812525,
        "timestamp": "2025-12-22T09:53:37.792968+00:00",
        "meta_object_name": "COSMOS 2251 DEB",
        "meta_object_id": "1993-036CJ",
        "meta_epoch": "2025-12-21T12:41:28.292352",
        "meta_mean_motion": 14.37872306,
        "meta_eccentricity": 0.00208956,
        "meta_inclination": 74.0377,
        "meta_ra_of_asc_node": 261.8602,
        "meta_arg_of_pericenter": 340.5917,
        "meta_mean_anomaly": 196.9374,
        "meta_ephemeris_type": 0,
        "meta_classification_type": "U",
        "meta_norad_cat_id": 33841,
        "meta_element_set_no": 999,
        "meta_rev_at_epoch": 88240,
        "meta_bstar": 0.00017641227,
        "meta_mean_motion_dot": 5.07e-06,
        "meta_mean_motion_ddot": 0,
        "tle_line1": "1 33841U 93036CJ  25355.52879968  .00000507  00000+0  17641-3 0  9997",
        "tle_line2": "2 33841  74.0377 261.8602 0020895 340.5917 196.9374 14.37872306882409"
      },
      "geometry": {
        "type": "Point",
        "coordinates": [
          -64.2822139290143,
          63.75292345378563
        ]
      }
    },
    {
      "type": "Feature",
      "properties": {
        "norad_id": 33842,
        "name": "COSMOS 2251 DEB",
        "group": "cosmos-2251-debris",
        "lat": 45.77653964895855,
        "lon": 4.588742522764053,
        "alt_km": 778.9827153974966,
        "timestamp": "2025-12-22T09:53:37.792984+00:00",
        "meta_object_name": "COSMOS 2251 DEB",
        "meta_object_id": "1993-036CK",
        "meta_epoch": "2025-12-21T19:58:10.464384",
        "meta_mean_motion": 14.42713502,
        "meta_eccentricity": 0.0047521,
        "meta_inclination": 74.0318,
        "meta_ra_of_asc_node": 202.7749,
        "meta_arg_of_pericenter": 308.2972,
        "meta_mean_anomaly": 51.3915,
        "meta_ephemeris_type": 0,
        "meta_classification_type": "U",
        "meta_norad_cat_id": 33842,
        "meta_element_set_no": 999,
        "meta_rev_at_epoch": 88468,
        "meta_bstar": 0.00020492,
        "meta_mean_motion_dot": 6.64e-06,
        "meta_mean_motion_ddot": 0,
        "tle_line1": "1 33842U 93036CK  25355.83206556  .00000664  00000+0  20492-3 0  9991",
        "tle_line2": "2 33842  74.0318 202.7749 0047521 308.2972  51.3915 14.42713502884683"
      },
      "geometry": {
        "type": "Point",
        "coordinates": [
          4.588742522764053,
          45.77653964895855
        ]
      }
    }
  ]
}